CUTE-1 (CO-55)          
1 27844U 03031E   26200.84277556  .00000127  00000+0  73652-4 0  9992
2 27844  98.6745 208.9919 0010867  90.7577 269.4847 14.24353232196321
CUBESAT XI-IV (CO-57)   
1 27848U 03031J   26200.49623929  .00000096  00000+0  61252-4 0  9994
2 27848  98.6776 208.3362 0010654 108.0973 252.1367 14.23635874195972
CUBESAT XI-V            
1 28895U 05043F   26200.40443851  .00000628  00000+0  10669-3 0  9993
2 28895  98.3022 356.7103 0015347 102.9295 257.3627 14.72708170106490
CUTE-1.7+APD II (CO-65) 
1 32785U 08021C   26200.79426966  .00001900  00000+0  12200-3 0  9992
2 32785  97.8299 182.9018 0006834 280.3432  79.7026 15.09722537990115
CANX-2                  
1 32790U 08021H   26200.45214582  .00001292  00000+0  93574-4 0  9998
2 32790  97.8659 180.8656 0008622 300.9362  59.1016 15.05818132989666
SEEDS II (CO-66)        
1 32791U 08021J   26200.43979132  .00009500  00000+0  29358-3 0  9994
2 32791  97.7533 199.9049 0003546 147.5625 212.5835 15.33752550992234
SWISSCUBE               
1 35932U 09051B   26200.73469947  .00000422  00000+0  92894-4 0  9999
2 35932  98.4003 109.1864 0008016 106.9807 253.2273 14.62535357893918
BEESAT-1                
1 35933U 09051C   26200.28201476  .00000366  00000+0  83262-4 0  9997
2 35933  98.3929 108.2939 0006330 119.2853 240.8981 14.61765433893875
ITUPSAT1                
1 35935U 09051E   26200.71211911  .00000317  00000+0  75448-4 0  9995
2 35935  98.4013 107.8874 0008343 130.5838 229.6088 14.60482308893486
TISAT 1                 
1 36799U 10035E   26200.83348542  .00011146  00000+0  35400-3 0  9997
2 36799  98.0714 150.3119 0004727 110.8075 249.3672 15.32838968872707
STRAND-1                
1 39090U 13009E   26200.49956115  .00000108  00000+0  50737-4 0  9998
2 39090  98.3939  19.9412 0009610 129.5054 230.6984 14.37180292701706
BRITE-AUSTRIA           
1 39091U 13009F   26200.73542264  .00000056  00000+0  33534-4 0  9990
2 39091  98.4013  19.3683 0011001 138.0696 222.1335 14.36553479701727
NEE-01 PEGASO           
1 39151U 13018B   26200.35248444  .00001491  00000+0  14616-3 0  9991
2 39151  98.1263 345.5756 0013570  62.0509 298.2082 14.93800794715507
POPACS 2                
1 39269U 13055E   26200.77806655  .00013517 -93082-6  21962-3 0  9996
2 39269  80.9909 106.8709 0414546  89.1844 275.6835 14.92145299668074
POPACS 3                
1 39270U 13055F   26200.40730755  .00007218  00000+0  17176-3 0  9998
2 39270  81.0009 194.2319 0548230 331.8183  25.4302 14.56727330643242
ZACUBE-1 (TSHEPISOSAT)  
1 39417U 13066B   26200.80008485  .00001230  00000+0  98515-4 0  9990
2 39417  97.8002 163.2958 0044073 140.4395 220.0060 15.01340631685621
WNISAT-1                
1 39423U 13066H   26200.39621042  .00000555  00000+0  10876-3 0  9993
2 39423  97.7241 347.2727 0164095 130.1631 231.4073 14.58125216671420
TRITON-1                
1 39427U 13066M   26200.84473743  .00001095  00000+0  13571-3 0  9995
2 39427  97.8217 109.9050 0090939 127.1380 233.8184 14.81805025678922
GOMX-1                  
1 39430U 13066Q   26200.80124735  .00000679  00000+0  10889-3 0  9995
2 39430  97.6464  39.2056 0127840 333.3842  26.0838 14.69548974674708
CUBEBUG-2 (LO-74)       
1 39440U 13066AA  26200.81657757  .00001790  00000+0  16876-3 0  9999
2 39440  97.8920 149.9413 0055546 279.7020  79.7928 14.93985325681860
NEE-02 KRYSAOR          
1 39441U 13066AB  26200.78446883  .00000992  00000+0  11373-3 0  9992
2 39441  97.8895 139.7708 0065013 324.0850  35.6003 14.86749402681042
FUNCUBE-1 (AO-73)       
1 39444U 13066AE  26200.86555310  .00004474  00000+0  27601-3 0  9990
2 39444  97.8300 173.0059 0038023  92.4857 268.0725 15.09856999684592
UWE-3                   
1 39446U 13066AG  26200.83144103  .00002164  00000+0  18817-3 0  9996
2 39446  97.8723 157.1335 0047670 208.5998 151.2608 14.97218739682464
BRITE-CA1 (TORONTO)     
1 40020U 14033L   26200.31108209  .00000524  00000+0  86289-4 0  9998
2 40020  97.9776 328.6539 0078789 173.0970 187.1343 14.72727256646944
DUCHIFAT-1              
1 40021U 14033M   26200.69128598  .00096791  00000+0  73904-3 0  9993
2 40021  98.0410 264.6092 0003278 229.8179 130.2795 15.71893278660840
NANOSATC-BR1            
1 40024U 14033Q   26200.34138363  .00008884  00000+0  28663-3 0  9997
2 40024  98.0708 235.6013 0005145  86.7681 273.4148 15.32407488658904
QB50P1                  
1 40025U 14033R   26200.83436966  .00004354  00000+0  21335-3 0  9999
2 40025  98.0972 214.2811 0010516 111.1602 249.0755 15.18706912657989
QB50P2                  
1 40032U 14033Y   26200.52184993  .00003463  00000+0  18647-3 0  9995
2 40032  98.0770 199.4267 0009209  71.8039 288.4193 15.15540194657567
PERSEUS-M2              
1 40037U 14033AD  26200.84704693 -.00000017  00000+0  40286-5 0  9999
2 40037  97.9984 152.0584 0011264 184.2728 175.8398 14.95592046655667
PERSEUS-M1              
1 40039U 14033AF  26200.81736060  .00000399  00000+0  41244-4 0  9997
2 40039  97.9654 145.4891 0011244 181.1687 178.9509 14.95723704655517
